NORAD_CAT_ID,OBJECT_NAME,OBJECT_TYPE,EPOCH,MEAN_MOTION,ECCENTRICITY,INCLINATION,RA_OF_ASC_NODE,ARG_OF_PERICENTER,MEAN_ANOMALY,BSTAR,MEAN_MOTION_DOT,MEAN_MOTION_DDOT,TLE_LINE0,TLE_LINE1,TLE_LINE2,SEMIMAJOR_AXIS,PERIOD,APOGEE,PERIGEE,DECAYED
51889.0,STARLINK-3547,PAYLOAD,2023-06-03 14:04:52,15.0883645,9.61e-05,53.2158,213.6488,76.7465,283.3635,2.4591e-05,1.04e-06,0.0,0 STARLINK-3547,1 51889U 22022AP  23154.58671412  .00000104  00000-0  24591-4 0  9998,2 51889  53.2158 213.6488 0000961  76.7465 283.3635 15.08836450 70759,6917.891,95.438,540.421,539.091,0.0
51889.0,STARLINK-3547,PAYLOAD,2023-06-03 20:26:24,15.08835703,9.34e-05,53.2156,212.4589,80.9065,279.2033,2.4872e-05,1.08e-06,0.0,0 STARLINK-3547,1 51889U 22022AP  23154.85167503  .00000108  00000-0  24872-4 0  9995,2 51889  53.2156 212.4589 0000934  80.9065 279.2033 15.08835703 70799,6917.894,95.438,540.405,539.112,0.0
51889.0,STARLINK-3547,PAYLOAD,2023-06-04 10:44:52,15.08838718,9.15e-05,53.2156,209.7823,79.9064,280.2032,9.4226e-05,1.212e-05,0.0,0 STARLINK-3547,1 51889U 22022AP  23155.44783217  .00001212  00000-0  94226-4 0  9994,2 51889  53.2156 209.7823 0000915  79.9064 280.2032 15.08838718 70885,6917.884,95.438,540.382,539.116,0.0
51889.0,STARLINK-3547,PAYLOAD,2023-06-04 20:17:11,15.08835392,9.19e-05,53.2157,207.9981,76.905,283.2045,5.8711e-05,6.47e-06,0.0,0 STARLINK-3547,1 51889U 22022AP  23155.84527601  .00000647  00000-0  58711-4 0  9991,2 51889  53.2157 207.9981 0000919  76.9050 283.2045 15.08835392 70946,6917.894,95.438,540.395,539.124,0.0
51889.0,STARLINK-3547,PAYLOAD,2023-06-05 02:38:44,15.08833099,9.17e-05,53.2156,206.8088,77.7558,282.3536,1.0632e-05,-1.19e-06,0.0,0 STARLINK-3547,1 51889U 22022AP  23156.11024008 -.00000119  00000-0  10632-4 0  9990,2 51889  53.2156 206.8088 0000917  77.7558 282.3536 15.08833099 70982,6917.901,95.438,540.401,539.132,0.0
51889.0,STARLINK-3547,PAYLOAD,2023-06-05 13:46:26,15.08838351,9.32e-05,53.2157,204.7274,76.2809,283.8287,4.706e-05,4.61e-06,0.0,0 STARLINK-3547,1 51889U 22022AP  23156.57391661  .00000461  00000-0  47060-4 0  9996,2 51889  53.2157 204.7274 0000932  76.2809 283.8287 15.08838351 71051,6917.885,95.438,540.395,539.106,0.0
51889.0,STARLINK-3547,PAYLOAD,2023-06-06 08:51:02,15.08850898,9.23e-05,53.216,201.1596,73.1466,286.9627,0.00011742,1.582e-05,0.0,0 STARLINK-3547,1 51889U 22022AP  23157.36878418  .00001582  00000-0  11742-3 0  9996,2 51889  53.2160 201.1596 0000923  73.1466 286.9627 15.08850898 71173,6917.847,95.437,540.351,539.074,0.0
51889.0,STARLINK-3547,PAYLOAD,2023-06-06 12:01:47,15.08868234,8.42e-05,53.2156,200.5641,88.5083,271.6005,0.00024201,3.569e-05,0.0,0 STARLINK-3547,1 51889U 22022AP  23157.50124729  .00003569  00000-0  24201-3 0  9992,2 51889  53.2156 200.5641 0000842  88.5083 271.6005 15.08868234 71193,6917.794,95.436,540.242,539.077,0.0
51889.0,STARLINK-3547,PAYLOAD,2023-06-07 02:20:17,15.08836448,8.64e-05,53.216,197.8879,123.8154,236.292,3.4018e-05,2.54e-06,0.0,0 STARLINK-3547,1 51889U 22022AP  23158.09743046  .00000254  00000-0  34018-4 0  9992,2 51889  53.2160 197.8879 0000864 123.8154 236.2920 15.08836448 71280,6917.891,95.438,540.354,539.159,0.0
51889.0,STARLINK-3547,PAYLOAD,2023-06-07 07:06:28,15.08829459,8.7e-05,53.216,196.9959,69.146,290.9625,-2.2494e-05,-6.46e-06,0.0,0 STARLINK-3547,1 51889U 22022AP  23158.29615899 -.00000646  00000-0 -22494-4 0  9990,2 51889  53.2160 196.9959 0000870  69.1460 290.9625 15.08829459 71315,6917.913,95.438,540.379,539.176,0.0
51889.0,STARLINK-3547,PAYLOAD,2023-06-07 11:52:37,15.08832819,8.94e-05,53.2159,196.1037,67.0494,293.0592,-2.8585e-05,-7.42e-06,0.0,0 STARLINK-3547,1 51889U 22022AP  23158.49487783 -.00000742  00000-0 -28585-4 0  9995,2 51889  53.2159 196.1037 0000894  67.0494 293.0592 15.08832819 71346,6917.902,95.438,540.386,539.149,0.0
51889.0,STARLINK-3547,PAYLOAD,2023-06-07 19:49:33,15.08834034,9.21e-05,53.2159,194.6167,65.4091,294.6997,-3.8113e-05,-8.94e-06,0.0,0 STARLINK-3547,1 51889U 22022AP  23158.82607823 -.00000894  00000-0 -38113-4 0  9997,2 51889  53.2159 194.6167 0000921  65.4091 294.6997 15.08834034 71391,6917.899,95.438,540.401,539.126,0.0
51889.0,STARLINK-3547,PAYLOAD,2023-06-08 02:11:05,15.08836158,8.43e-05,53.2159,193.4271,74.3998,285.7087,-3.6705e-05,-8.72e-06,0.0,0 STARLINK-3547,1 51889U 22022AP  23159.09103686 -.00000872  00000-0 -36705-4 0  9996,2 51889  53.2159 193.4271 0000843  74.3998 285.7087 15.08836158 71437,6917.892,95.438,540.34,539.174,0.0
51889.0,STARLINK-3547,PAYLOAD,2023-06-08 08:32:37,15.08849556,8.42e-05,53.2157,192.238,69.3774,290.7308,-0.00015686,-2.784e-05,0.0,0 STARLINK-3547,1 51889U 22022AP  23159.35599243 -.00002784  00000-0 -15686-3 0  9991,2 51889  53.2157 192.2380 0000842  69.3774 290.7308 15.08849556 71470,6917.851,95.437,540.299,539.134,0.0
51889.0,STARLINK-3547,PAYLOAD,2023-06-08 22:51:01,15.09012513,0.0002098,53.2155,189.5613,68.0531,292.0684,-0.0023913,-0.00038325,0.0,0 STARLINK-3547,1 51889U 22022AP  23159.95209969 -.00038325  00000-0 -23913-2 0  9991,2 51889  53.2155 189.5613 0002098  68.0531 292.0684 15.09012513 71566,6917.353,95.427,540.669,537.767,0.0
51889.0,STARLINK-3547,PAYLOAD,2023-06-09 08:23:24,15.0883339,9.51e-05,53.2154,187.7773,60.847,299.2617,0.0001372,1.896e-05,0.0,0 STARLINK-3547,1 51889U 22022AP  23160.34959405  .00001896  00000-0  13720-3 0  9990,2 51889  53.2154 187.7773 0000951  60.8470 299.2617 15.08833390 71625,6917.901,95.438,540.423,539.108,0.0
51889.0,STARLINK-3547,PAYLOAD,2023-06-09 13:09:34,15.08836459,9.56e-05,53.2155,186.8855,59.1817,300.9269,0.00013747,1.901e-05,0.0,0 STARLINK-3547,1 51889U 22022AP  23160.54831295  .00001901  00000-0  13747-3 0  9994,2 51889  53.2155 186.8855 0000956  59.1817 300.9269 15.08836459 71653,6917.891,95.438,540.418,539.095,0.0
51889.0,STARLINK-3547,PAYLOAD,2023-06-10 11:24:58,15.08836908,0.0001014,53.2155,182.7228,57.0555,303.0535,5.3137e-05,5.58e-06,0.0,0 STARLINK-3547,1 51889U 22022AP  23161.47567860  .00000558  00000-0  53137-4 0  9996,2 51889  53.2155 182.7228 0001014  57.0555 303.0535 15.08836908 71798,6917.89,95.438,540.456,539.053,0.0
51889.0,STARLINK-3547,PAYLOAD,2023-06-11 11:15:45,15.0884012,0.0001019,53.2156,178.2616,54.6918,305.417,2.4547e-05,1.03e-06,0.0,0 STARLINK-3547,1 51889U 22022AP  23162.46927922  .00000103  00000-0  24547-4 0  9994,2 51889  53.2156 178.2616 0001019  54.6918 305.4170 15.08840120 71940,6917.88,95.438,540.45,539.04,0.0
51889.0,STARLINK-3547,PAYLOAD,2023-06-11 20:48:04,15.08834707,9.92e-05,53.2155,176.4778,57.9729,302.136,3.5244e-05,2.73e-06,0.0,0 STARLINK-3547,1 51889U 22022AP  23162.86672284  .00000273  00000-0  35244-4 0  9990,2 51889  53.2155 176.4778 0000992  57.9729 302.1360 15.08834707 72000,6917.897,95.438,540.448,539.075,0.0
51889.0,STARLINK-3547,PAYLOAD,2023-06-11 23:58:51,15.08835076,9.97e-05,53.2155,175.883,57.7904,302.3184,3.652e-05,2.93e-06,0.0,0 STARLINK-3547,1 51889U 22022AP  23162.99920295  .00000293  00000-0  36520-4 0  9992,2 51889  53.2155 175.8830 0000997  57.7904 302.3184 15.08835076 72028,6917.895,95.438,540.45,539.071,0.0
51889.0,STARLINK-3547,PAYLOAD,2023-06-12 07:55:46,15.08835428,0.0001024,53.2153,174.3959,58.2566,301.8526,3.9161e-05,3.35e-06,0.0,0 STARLINK-3547,1 51889U 22022AP  23163.33040375  .00000335  00000-0  39161-4 0  9994,2 51889  53.2153 174.3959 0001024  58.2566 301.8526 15.08835428 72074,6917.894,95.438,540.468,539.051,0.0
51889.0,STARLINK-3547,PAYLOAD,2023-06-12 17:28:05,15.08835826,0.0001031,53.2154,172.6118,57.6271,302.482,4.2533e-05,3.89e-06,0.0,0 STARLINK-3547,1 51889U 22022AP  23163.72784444  .00000389  00000-0  42533-4 0  9995,2 51889  53.2154 172.6118 0001031  57.6271 302.4820 15.08835826 72130,6917.893,95.438,540.471,539.045,0.0
51889.0,STARLINK-3547,PAYLOAD,2023-06-13 01:25:01,15.08836156,0.0001044,53.2153,171.1249,58.282,301.8274,3.5376e-05,2.75e-06,0.0,0 STARLINK-3547,1 51889U 22022AP  23164.05904556  .00000275  00000-0  35376-4 0  9991,2 51889  53.2153 171.1249 0001044  58.2820 301.8274 15.08836156 72187,6917.892,95.438,540.479,539.035,0.0
51889.0,STARLINK-3547,PAYLOAD,2023-06-13 09:21:57,15.08838139,0.0001064,53.2154,169.6381,58.3284,301.7812,4.7549e-05,4.69e-06,0.0,0 STARLINK-3547,1 51889U 22022AP  23164.39024439  .00000469  00000-0  47549-4 0  9991,2 51889  53.2154 169.6381 0001064  58.3284 301.7812 15.08838139 72230,6917.886,95.438,540.487,539.015,0.0
51889.0,STARLINK-3547,PAYLOAD,2023-06-13 17:18:52,15.08837817,0.0001067,53.2154,168.1513,59.6855,300.4243,3.8806e-05,3.3e-06,0.0,0 STARLINK-3547,1 51889U 22022AP  23164.72144530  .00000330  00000-0  38806-4 0  9996,2 51889  53.2154 168.1513 0001067  59.6855 300.4243 15.08837817 72283,6917.887,95.438,540.49,539.014,0.0
51889.0,STARLINK-3547,PAYLOAD,2023-06-14 01:15:48,15.08837778,0.000104,53.2156,166.6644,62.7872,297.3226,5.6857e-05,6.17e-06,0.0,0 STARLINK-3547,1 51889U 22022AP  23165.05264524  .00000617  00000-0  56857-4 0  9993,2 51889  53.2156 166.6644 0001040  62.7872 297.3226 15.08837778 72335,6917.887,95.438,540.472,539.033,0.0
51889.0,STARLINK-3547,PAYLOAD,2023-06-14 17:09:39,15.08839714,0.0001076,53.2158,163.691,62.3596,297.7505,6.3218e-05,7.18e-06,0.0,0 STARLINK-3547,1 51889U 22022AP  23165.71504468  .00000718  00000-0  63218-4 0  9991,2 51889  53.2158 163.6910 0001076  62.3596 297.7505 15.08839714 72435,6917.881,95.438,540.491,539.002,0.0
51889.0,STARLINK-3547,PAYLOAD,2023-06-15 07:28:08,15.08840557,0.0001102,53.216,161.0147,63.8263,296.2842,5.377e-05,5.68e-06,0.0,0 STARLINK-3547,1 51889U 22022AP  23166.31120473  .00000568  00000-0  53770-4 0  9993,2 51889  53.2160 161.0147 0001102  63.8263 296.2842 15.08840557 72524,6917.879,95.438,540.506,538.981,0.0
51889.0,STARLINK-3547,PAYLOAD,2023-06-15 17:00:26,15.08840093,0.0001119,53.216,159.2306,63.4086,296.702,4.5251e-05,4.32e-06,0.0,0 STARLINK-3547,1 51889U 22022AP  23166.70864533  .00000432  00000-0  45251-4 0  9993,2 51889  53.2160 159.2306 0001119  63.4086 296.7020 15.08840093 72581,6917.88,95.438,540.519,538.971,0.0
